#dP2021  1 14 12  0  0.00000000      96 __u+U ITR00 EXT  IAC
## 2140 388800.00000000   900.00000000 59228 0.5000000000000
+  114   C06C08C09C10C11C12C13C14C16C19C20C21C22C23C24C25C26
+        C27C28C29C30C32C33C34C35C36C37C38C39C40C43C44C45C46
+        E01E02E03E04E05E07E08E09E11E12E13E14E15E18E19E21E24
+        E25E26E27E30E31E33E36G01G02G03G04G05G06G07G08G09G10
+        G11G12G13G14G15G16G17G18G19G20G21G22G23G24G25G26G27
+        G28G29G30G31G32J01J02J03R01R02R03R04R05R07R08R09R11
+        R12R13R14R15R16R17R18R19R20R21R22R24  0  0  0  0  0
++         9  9  9 10  9  9  9  8  9  8 11  9  7  9  7  8  8
++        10  8  8  9  9  9  7  8  7 11  0  0  0 11 11 12 12
++         9  8  9  9  9  9  8  6  8 10  8  8  9 10  9  7  8
++         8  7  9  9  9 10  8  8  8  7  8  8  7  9  7  8  8
++         8  8  8  7  7  9  9  9  8  7  8  7  9  7  9  8  8
++         7  8  8  8  9  9 11 10  9  9  9  8 10  9  8  8  8
++         9  8  9  8 10  9  7 10  9 10 10  9  0  0  0  0  0
%c M  cc GPS ccc cccc cccc cccc cccc ccccc ccccc ccccc ccccc
%c cc cc ccc ccc cccc cccc cccc cccc ccccc ccccc ccccc ccccc
%f  0.0000000  0.000000000  0.00000000000  0.000000000000000
%f  0.0000000  0.000000000  0.00000000000  0.000000000000000
%i    0    0    0    0      0      0      0      0         0
%i    0    0    0    0      0      0      0      0         0
/* IAC                                ULTRA-RAPID PREDICTION
/* S/V CLOCKS ARE ALIGNED TO GNSS TIME                      
/* G:C1WC2W R:C1PC2P E:C1XC5X C:C2IC6I J:C1CC2S             
/* PCV:IGS14_2134 OL/AL:FES2004  NONE     YN ORB:CoN CLK:CoN
*  2021 01 14 12 15  0.00000000
PC06  -6363.973012  31005.587786 -27222.097845      7.452805
PC08 -20747.349633  36825.753198  -2805.871273   -894.990251
PC09   5985.661239  38723.925257 -14771.645982    804.160975
PC10  -3645.155066  26476.369992  32785.783406   -104.264257
PC11  -3672.141373  22880.521486  15648.428075   -885.513905
PC12 -14040.734098   6396.873331  23295.493147    729.182340
PC13  -9942.132441  37665.729631 -16397.551844     97.364578
PC14  -9487.254086  13885.408292 -22239.735071    -98.773848
PC16  -4845.508198  31766.997711 -27118.311489   -659.640806
PC19  -1604.412660 -16281.912964  22626.999791    690.556447
PC20  17827.002519  -9900.563961  19072.857212   -909.456361
PC21 -27480.353223  -2753.574435  -3931.838413   -792.635562
PC22 -20631.833685 -13427.998232  13122.172546   -844.447440
PC23  10197.561668  12802.910678  22601.985553   -881.657109
PC24 -19980.263730  19327.817356  -2657.939119   -741.787115
PC25  -5896.256464  22987.133035  14695.576555   -897.005230
PC26 -21196.008528   5898.090584 -17198.011188    963.103495
PC27  17067.469509   4440.234993 -21635.258419    466.248723
PC28  14021.561485  22069.246615  -9752.164256   -121.855613
PC29  -3786.290689 -26537.869000  -7765.230737    338.443141
PC30   9797.398317 -15650.784896 -20929.456831    431.091896
PC32  27513.310985   2541.131443   3938.279181   -883.487782
PC33   1612.357009  16285.485136 -22602.831958   -914.452843
PC34  -9490.314173  16195.282596  20638.577343   -763.386178
PC35 -14698.041444 -21762.993563   9490.861423   -466.150716
PC36   6704.032945 -22893.319543 -14454.237738   -777.399091
PC37  21063.567974  -4582.549755  17721.503719   -860.624831
PC38 -18985.068396  37483.039335  -4217.245159    123.856651
PC39  -1262.207021  32969.020998 -26176.670195     27.423598
PC40 -11528.991435  20886.535042  34764.444544    121.155637
PC43   3286.250873  26477.073150   8138.699780   -551.610156
PC44 -17358.134906  -4120.550087  21464.766816    -13.894652
PC45 -10214.284845 -12622.111170 -22693.478682    334.997298
PC46  19554.813061 -19787.515514   1875.477621    452.679606
PE01   7200.786629  14867.088270  24562.725087  -1024.564628
PE02  -7359.013791 -14799.739092 -24557.113707    190.973223
PE03 -15918.891795 -22390.034176  11000.495941   -387.217650
PE04  25377.103840  13425.343822   7201.379351   -688.636890
PE05   3021.228291 -18354.960998  23021.073316   -312.984099
PE07 -20017.442664   3649.070279 -21496.204348   -487.542367
PE08 -25456.130940 -13096.328189  -7512.795552   6062.193589
PE09  19837.967805  -3769.803155  21644.892148   5799.433393
PE11  15713.211956 -13819.826266 -20938.850030   6471.653842
PE12  14663.616418   9165.175339 -24012.036247   5407.257307
PE13 -15684.767862  13455.276062  21203.146032    410.241216
PE14  -7808.894208  14055.035490  17702.458471  -1294.397851
PE15 -14647.826525  -9054.310696  24089.494537    834.328179
PE18  15501.132876 -13501.939437 -24813.130660  -1414.680957
PE19  14082.354605  22574.392629 -12967.284204    178.168952
PE21 -13543.909844  18775.697851  18450.698674   -642.795734
PE24  27284.288900 -11402.598990   -856.984837   -689.055964
PE25  13698.027870 -18755.932812 -18338.006412   -524.301255
PE26  -7294.652286  28221.163181   5180.047758   2266.475350
PE27 -27077.660933  11894.716162   1436.708024     51.342929
PE30 -24220.359363  -2635.079399 -16834.588838   3263.737844
PE31  24607.028839   1950.441904  16335.448449   -477.347456
PE33   4981.402997  26219.623379 -12783.969549   -464.852256
PE36   7489.645929 -28035.135723  -5836.374727    454.385819
PG01 -14079.674909  20488.977511   8616.511578    780.347281
PG02  15294.666656    104.596495 -21057.779017   -565.862489
PG03 -18275.521536  12955.496899 -14271.478215    -56.031450
PG04  -9373.894257  12482.491800 -21479.260397   -172.631535
PG05  26289.968986  -2570.117931  -3760.456512    -30.960852
PG06   8647.961592  15008.401437 -20056.659700     -4.584796
PG07  -5041.248447  25149.497532   6141.256003     21.220132
PG08 -15072.493905   4944.489619  21356.787646     -6.549465
PG09   2022.603476  20644.736895 -16637.809965   -312.619622
PG10 -11212.785420 -12560.668100  20707.996577    -38.939444
PG11 -12387.923525  14453.569574  18207.648699    -53.293490
PG12  21638.747214 -10015.959292 -11773.995819     13.094221
PG13  18450.945185   6154.549110  18004.268697     85.803023
PG14   8470.729623  13842.382475  21019.819560     85.232309
PG15  14417.637480  -7555.441080  20678.694581   -176.398008
PG16 -26447.404942  -1094.926892  -4497.742230   -264.941022
PG17  14091.839884  22407.703462   2660.375613    380.098967
PG18   3915.387323 -24921.123645   8213.656429    341.159912
PG19  17464.388519  19254.739633  -5945.945461    -52.046792
PG20   1698.965831 -16456.957179  20670.346331    525.174079
PG21 -16198.821914  13711.122772  16449.818488     86.720546
PG22 -23480.354923  10646.806243  -5817.997259   -698.377792
PG23   1079.422805 -15455.842049  21543.935616    116.001950
PG24  15024.358038 -17443.812182  12658.419953      3.690240
PG25   8766.346537 -15477.718883 -19886.267708     59.566437
PG26 -21564.206232  -6225.242064 -14448.058920     29.771665
PG27 -20135.378843  -8124.957345  15387.408543    -55.798793
PG28  11423.416399  13167.862974  20552.689026    629.854626
PG29    -36.512616 -20063.370002 -17421.120754   -275.587191
PG30   3273.681542  21470.415191  15186.267967   -368.751801
PG31 -10803.732571 -12442.456661 -20810.677990    -93.824386
PG32 -16100.024250 -21178.287907   1688.625102     14.229574
PJ01 -28814.917197  14942.206642 -22311.639364   -336.509679
PJ02 -30975.430485  28025.948850  10472.729666      0.738004
PJ03 -24459.178277  26216.295038  27352.754566     -0.102976
PR01 -23361.495171 -10023.150832   2041.518094     73.483460
PR02 -18563.495598   1233.453432 -17447.227938    462.824175
PR03  -2568.155722  10740.629993 -22954.114788     29.131206
PR04  14761.581800  13870.171449 -15476.389491     69.971378
PR05  23692.516703   9389.010433    707.514384     64.733638
PR07   1828.965213 -11041.221310  22956.219744    -42.163483
PR08 -14728.457133 -13975.480036  15505.000391    -56.834226
PR09  20986.430683 -13853.434597   4491.649577     18.534360
PR11  -2282.883126 -11767.856383 -22507.972580      4.567767
PR12 -16700.802402   1477.540171 -19211.705029    196.587748
PR13 -20933.915148  13713.193463  -4974.810220    -49.283573
PR14 -12862.514640  17923.562044  12807.531320     59.850536
PR15   2516.638860  11680.910781  22553.789692    105.908062
PR16  17130.832605  -2316.605837  18675.035887    -10.192291
PR17  -2003.413592  22932.772540  11045.286185    391.173917
PR18   5736.124340  24137.188441  -5790.540319     63.135960
PR19   9998.780728  13483.084774 -19200.440243   -127.847464
PR20   9190.742908  -8005.264371 -22399.903164   -431.108952
PR21   1496.061036 -23398.506618 -10009.135435   -180.314692
PR22  -6076.398571 -23832.900698   6939.467788    -92.433365
PR24  -9377.917301   8887.517172  22019.853909     27.752964
EOF
